STARLINK-36321          
1 68046U 26041G   26087.39112844  .00216248  00000+0  13745-2 0  9996
2 68046  53.1589 328.6146 0001127  48.2054 311.9062 15.75315028  4172
STARLINK-36181          
1 68047U 26041H   26087.50001156  .00047706  00000+0  31419-3 0  9993
2 68047  53.1587 327.8625 0000948 113.8976 247.0255 15.75197329  5284
STARLINK-36318          
1 68048U 26041J   26086.97003064  .00260869  00000+0  16471-2 0  9991
2 68048  53.1595 330.9757 0000554 103.3119 256.7963 15.75333893  4102
STARLINK-36885          
1 68049U 26041K   26087.22348179  .00190652  00000+0  12154-2 0  9996
2 68049  53.1606 329.7110 0000602  76.6931 283.4156 15.75325535  4142
STARLINK-36945          
1 68050U 26041L   26087.50001156  .00050486  00000+0  33232-3 0  9991
2 68050  53.1589 327.9186 0000990  72.7327 260.6029 15.75185621  5409
STARLINK-35911          
1 68051U 26041M   26087.50001156  .00007672  00000+0  54262-4 0  9998
2 68051  53.1592 327.8659 0001399 117.7322 241.3554 15.75200181  5360
STARLINK-35808          
1 68052U 26041N   26087.39146830  .00423167  00000+0  26137-2 0  9994
2 68052  53.1583 328.6155 0003281  75.9597 284.1788 15.75372055  4174
STARLINK-36919          
1 68053U 26041P   26087.50001156  .00051954  00000+0  34176-3 0  9993
2 68053  53.1589 327.8123 0000553  85.3097 299.5173 15.75188344  5407
STARLINK-36924          
1 68054U 26041Q   26087.33334490 -.00151994  00000+0 -10029-2 0  9992
2 68054  53.1598 329.1175 0000963  93.4519 193.8950 15.75292418  5377
STARLINK-35998          
1 68055U 26041R   26087.38658904  .00268250  00000+0  16918-2 0  9992
2 68055  53.1587 328.5838 0000681  91.4090 268.7009 15.75337673  4171
STARLINK-36845          
1 68056U 26041S   26087.38204958  .00355798  00000+0  22151-2 0  9999
2 68056  53.1604 328.5534 0000284  77.7596 282.3456 15.75380179  4179
STARLINK-36954          
1 68057U 26041T   26087.15549951  .00136884  00000+0  88025-3 0  9996
2 68057  53.1602 329.9954 0000709  59.1227 300.9862 15.75304086  4133
