CCSDS_OMM_VERS = 2.0
CREATION_DATE  = 
ORIGINATOR     = 

OBJECT_NAME    = STARLINK-36321
OBJECT_ID      = 2026-041G
CENTER_NAME    = EARTH
REF_FRAME      = TEME
TIME_SYSTEM    = UTC
MEAN_ELEMENT_THEORY = SGP/SGP4

EPOCH          = 2026-03-28T09:23:13.497216
MEAN_MOTION    = 15.75315028
ECCENTRICITY   = .0001127
INCLINATION    = 53.1589
RA_OF_ASC_NODE = 328.6146
ARG_OF_PERICENTER = 48.2054
MEAN_ANOMALY   = 311.9062

EPHEMERIS_TYPE = 0
CLASSIFICATION_TYPE = U
NORAD_CAT_ID   = 68046
ELEMENT_SET_NO = 999
REV_AT_EPOCH   = 417
BSTAR          = .13745E-2
MEAN_MOTION_DOT = .216248E-2
MEAN_MOTION_DDOT = 0

CCSDS_OMM_VERS = 2.0
CREATION_DATE  = 
ORIGINATOR     = 

OBJECT_NAME    = STARLINK-36181
OBJECT_ID      = 2026-041H
CENTER_NAME    = EARTH
REF_FRAME      = TEME
TIME_SYSTEM    = UTC
MEAN_ELEMENT_THEORY = SGP/SGP4

EPOCH          = 2026-03-28T12:00:00.998784
MEAN_MOTION    = 15.75197329
ECCENTRICITY   = .0000948
INCLINATION    = 53.1587
RA_OF_ASC_NODE = 327.8625
ARG_OF_PERICENTER = 113.8976
MEAN_ANOMALY   = 247.0255

EPHEMERIS_TYPE = 0
CLASSIFICATION_TYPE = U
NORAD_CAT_ID   = 68047
ELEMENT_SET_NO = 999
REV_AT_EPOCH   = 528
BSTAR          = .31419E-3
MEAN_MOTION_DOT = .47706E-3
MEAN_MOTION_DDOT = 0

CCSDS_OMM_VERS = 2.0
CREATION_DATE  = 
ORIGINATOR     = 

OBJECT_NAME    = STARLINK-36318
OBJECT_ID      = 2026-041J
CENTER_NAME    = EARTH
REF_FRAME      = TEME
TIME_SYSTEM    = UTC
MEAN_ELEMENT_THEORY = SGP/SGP4

EPOCH          = 2026-03-27T23:16:50.647296
MEAN_MOTION    = 15.75333893
ECCENTRICITY   = .0000554
INCLINATION    = 53.1595
RA_OF_ASC_NODE = 330.9757
ARG_OF_PERICENTER = 103.3119
MEAN_ANOMALY   = 256.7963

EPHEMERIS_TYPE = 0
CLASSIFICATION_TYPE = U
NORAD_CAT_ID   = 68048
ELEMENT_SET_NO = 999
REV_AT_EPOCH   = 410
BSTAR          = .16471E-2
MEAN_MOTION_DOT = .260869E-2
MEAN_MOTION_DDOT = 0

CCSDS_OMM_VERS = 2.0
CREATION_DATE  = 
ORIGINATOR     = 

OBJECT_NAME    = STARLINK-36885
OBJECT_ID      = 2026-041K
CENTER_NAME    = EARTH
REF_FRAME      = TEME
TIME_SYSTEM    = UTC
MEAN_ELEMENT_THEORY = SGP/SGP4

EPOCH          = 2026-03-28T05:21:48.826656
MEAN_MOTION    = 15.75325535
ECCENTRICITY   = .0000602
INCLINATION    = 53.1606
RA_OF_ASC_NODE = 329.7110
ARG_OF_PERICENTER = 76.6931
MEAN_ANOMALY   = 283.4156

EPHEMERIS_TYPE = 0
CLASSIFICATION_TYPE = U
NORAD_CAT_ID   = 68049
ELEMENT_SET_NO = 999
REV_AT_EPOCH   = 414
BSTAR          = .12154E-2
MEAN_MOTION_DOT = .190652E-2
MEAN_MOTION_DDOT = 0

CCSDS_OMM_VERS = 2.0
CREATION_DATE  = 
ORIGINATOR     = 

OBJECT_NAME    = STARLINK-36945
OBJECT_ID      = 2026-041L
CENTER_NAME    = EARTH
REF_FRAME      = TEME
TIME_SYSTEM    = UTC
MEAN_ELEMENT_THEORY = SGP/SGP4

EPOCH          = 2026-03-28T12:00:00.998784
MEAN_MOTION    = 15.75185621
ECCENTRICITY   = .000099
INCLINATION    = 53.1589
RA_OF_ASC_NODE = 327.9186
ARG_OF_PERICENTER = 72.7327
MEAN_ANOMALY   = 260.6029

EPHEMERIS_TYPE = 0
CLASSIFICATION_TYPE = U
NORAD_CAT_ID   = 68050
ELEMENT_SET_NO = 999
REV_AT_EPOCH   = 540
BSTAR          = .33232E-3
MEAN_MOTION_DOT = .50486E-3
MEAN_MOTION_DDOT = 0

CCSDS_OMM_VERS = 2.0
CREATION_DATE  = 
ORIGINATOR     = 

OBJECT_NAME    = STARLINK-35911
OBJECT_ID      = 2026-041M
CENTER_NAME    = EARTH
REF_FRAME      = TEME
TIME_SYSTEM    = UTC
MEAN_ELEMENT_THEORY = SGP/SGP4

EPOCH          = 2026-03-28T12:00:00.998784
MEAN_MOTION    = 15.75200181
ECCENTRICITY   = .0001399
INCLINATION    = 53.1592
RA_OF_ASC_NODE = 327.8659
ARG_OF_PERICENTER = 117.7322
MEAN_ANOMALY   = 241.3554

EPHEMERIS_TYPE = 0
CLASSIFICATION_TYPE = U
NORAD_CAT_ID   = 68051
ELEMENT_SET_NO = 999
REV_AT_EPOCH   = 536
BSTAR          = .54262E-4
MEAN_MOTION_DOT = .7672E-4
MEAN_MOTION_DDOT = 0

CCSDS_OMM_VERS = 2.0
CREATION_DATE  = 
ORIGINATOR     = 

OBJECT_NAME    = STARLINK-35808
OBJECT_ID      = 2026-041N
CENTER_NAME    = EARTH
REF_FRAME      = TEME
TIME_SYSTEM    = UTC
MEAN_ELEMENT_THEORY = SGP/SGP4

EPOCH          = 2026-03-28T09:23:42.861120
MEAN_MOTION    = 15.75372055
ECCENTRICITY   = .0003281
INCLINATION    = 53.1583
RA_OF_ASC_NODE = 328.6155
ARG_OF_PERICENTER = 75.9597
MEAN_ANOMALY   = 284.1788

EPHEMERIS_TYPE = 0
CLASSIFICATION_TYPE = U
NORAD_CAT_ID   = 68052
ELEMENT_SET_NO = 999
REV_AT_EPOCH   = 417
BSTAR          = .26137E-2
MEAN_MOTION_DOT = .423167E-2
MEAN_MOTION_DDOT = 0

CCSDS_OMM_VERS = 2.0
CREATION_DATE  = 
ORIGINATOR     = 

OBJECT_NAME    = STARLINK-36919
OBJECT_ID      = 2026-041P
CENTER_NAME    = EARTH
REF_FRAME      = TEME
TIME_SYSTEM    = UTC
MEAN_ELEMENT_THEORY = SGP/SGP4

EPOCH          = 2026-03-28T12:00:00.998784
MEAN_MOTION    = 15.75188344
ECCENTRICITY   = .0000553
INCLINATION    = 53.1589
RA_OF_ASC_NODE = 327.8123
ARG_OF_PERICENTER = 85.3097
MEAN_ANOMALY   = 299.5173

EPHEMERIS_TYPE = 0
CLASSIFICATION_TYPE = U
NORAD_CAT_ID   = 68053
ELEMENT_SET_NO = 999
REV_AT_EPOCH   = 540
BSTAR          = .34176E-3
MEAN_MOTION_DOT = .51954E-3
MEAN_MOTION_DDOT = 0

CCSDS_OMM_VERS = 2.0
CREATION_DATE  = 
ORIGINATOR     = 

OBJECT_NAME    = STARLINK-36924
OBJECT_ID      = 2026-041Q
CENTER_NAME    = EARTH
REF_FRAME      = TEME
TIME_SYSTEM    = UTC
MEAN_ELEMENT_THEORY = SGP/SGP4

EPOCH          = 2026-03-28T08:00:00.999360
MEAN_MOTION    = 15.75292418
ECCENTRICITY   = .0000963
INCLINATION    = 53.1598
RA_OF_ASC_NODE = 329.1175
ARG_OF_PERICENTER = 93.4519
MEAN_ANOMALY   = 193.8950

EPHEMERIS_TYPE = 0
CLASSIFICATION_TYPE = U
NORAD_CAT_ID   = 68054
ELEMENT_SET_NO = 999
REV_AT_EPOCH   = 537
BSTAR          = -.10029E-2
MEAN_MOTION_DOT = -.151994E-2
MEAN_MOTION_DDOT = 0

CCSDS_OMM_VERS = 2.0
CREATION_DATE  = 
ORIGINATOR     = 

OBJECT_NAME    = STARLINK-35998
OBJECT_ID      = 2026-041R
CENTER_NAME    = EARTH
REF_FRAME      = TEME
TIME_SYSTEM    = UTC
MEAN_ELEMENT_THEORY = SGP/SGP4

EPOCH          = 2026-03-28T09:16:41.293056
MEAN_MOTION    = 15.75337673
ECCENTRICITY   = .0000681
INCLINATION    = 53.1587
RA_OF_ASC_NODE = 328.5838
ARG_OF_PERICENTER = 91.4090
MEAN_ANOMALY   = 268.7009

EPHEMERIS_TYPE = 0
CLASSIFICATION_TYPE = U
NORAD_CAT_ID   = 68055
ELEMENT_SET_NO = 999
REV_AT_EPOCH   = 417
BSTAR          = .16918E-2
MEAN_MOTION_DOT = .26825E-2
MEAN_MOTION_DDOT = 0

CCSDS_OMM_VERS = 2.0
CREATION_DATE  = 
ORIGINATOR     = 

OBJECT_NAME    = STARLINK-36845
OBJECT_ID      = 2026-041S
CENTER_NAME    = EARTH
REF_FRAME      = TEME
TIME_SYSTEM    = UTC
MEAN_ELEMENT_THEORY = SGP/SGP4

EPOCH          = 2026-03-28T09:10:09.083712
MEAN_MOTION    = 15.75380179
ECCENTRICITY   = .0000284
INCLINATION    = 53.1604
RA_OF_ASC_NODE = 328.5534
ARG_OF_PERICENTER = 77.7596
MEAN_ANOMALY   = 282.3456

EPHEMERIS_TYPE = 0
CLASSIFICATION_TYPE = U
NORAD_CAT_ID   = 68056
ELEMENT_SET_NO = 999
REV_AT_EPOCH   = 417
BSTAR          = .22151E-2
MEAN_MOTION_DOT = .355798E-2
MEAN_MOTION_DDOT = 0

CCSDS_OMM_VERS = 2.0
CREATION_DATE  = 
ORIGINATOR     = 

OBJECT_NAME    = STARLINK-36954
OBJECT_ID      = 2026-041T
CENTER_NAME    = EARTH
REF_FRAME      = TEME
TIME_SYSTEM    = UTC
MEAN_ELEMENT_THEORY = SGP/SGP4

EPOCH          = 2026-03-28T03:43:55.157664
MEAN_MOTION    = 15.75304086
ECCENTRICITY   = .0000709
INCLINATION    = 53.1602
RA_OF_ASC_NODE = 329.9954
ARG_OF_PERICENTER = 59.1227
MEAN_ANOMALY   = 300.9862

EPHEMERIS_TYPE = 0
CLASSIFICATION_TYPE = U
NORAD_CAT_ID   = 68057
ELEMENT_SET_NO = 999
REV_AT_EPOCH   = 413
BSTAR          = .88025E-3
MEAN_MOTION_DOT = .136884E-2
MEAN_MOTION_DDOT = 0

